CCSDS_OMM_VERS = 2.0
CREATION_DATE  = 
ORIGINATOR     = 

OBJECT_NAME    = DELTA 2 R/B(1)
OBJECT_ID      = 1990-008B
CENTER_NAME    = EARTH
REF_FRAME      = TEME
TIME_SYSTEM    = UTC
MEAN_ELEMENT_THEORY = SGP/SGP4

EPOCH          = 2026-02-21T00:00:10.842336
MEAN_MOTION    = 15.53535456
ECCENTRICITY   = .00888706
INCLINATION    = 35.6040
RA_OF_ASC_NODE = 284.1803
ARG_OF_PERICENTER = 103.0443
MEAN_ANOMALY   = 258.0231

EPHEMERIS_TYPE = 0
CLASSIFICATION_TYPE = U
NORAD_CAT_ID   = 20453
ELEMENT_SET_NO = 999
REV_AT_EPOCH   = 92353
BSTAR          = .78404539E-3
MEAN_MOTION_DOT = .6166E-3
MEAN_MOTION_DDOT = 0

CCSDS_OMM_VERS = 2.0
CREATION_DATE  = 
ORIGINATOR     = 

OBJECT_NAME    = COSMOS 2058
OBJECT_ID      = 1990-010A
CENTER_NAME    = EARTH
REF_FRAME      = TEME
TIME_SYSTEM    = UTC
MEAN_ELEMENT_THEORY = SGP/SGP4

EPOCH          = 2026-02-21T00:41:22.260768
MEAN_MOTION    = 15.11158688
ECCENTRICITY   = .00106453
INCLINATION    = 82.4665
RA_OF_ASC_NODE = 63.8414
ARG_OF_PERICENTER = 40.0076
MEAN_ANOMALY   = 320.1936

EPHEMERIS_TYPE = 0
CLASSIFICATION_TYPE = U
NORAD_CAT_ID   = 20465
ELEMENT_SET_NO = 999
REV_AT_EPOCH   = 93972
BSTAR          = .22884405E-3
MEAN_MOTION_DOT = .387E-4
MEAN_MOTION_DDOT = 0

CCSDS_OMM_VERS = 2.0
CREATION_DATE  = 
ORIGINATOR     = 

OBJECT_NAME    = SL-14 R/B
OBJECT_ID      = 1990-010B
CENTER_NAME    = EARTH
REF_FRAME      = TEME
TIME_SYSTEM    = UTC
MEAN_ELEMENT_THEORY = SGP/SGP4

EPOCH          = 2026-02-21T02:16:44.937984
MEAN_MOTION    = 14.83553623
ECCENTRICITY   = .00197927
INCLINATION    = 82.5006
RA_OF_ASC_NODE = 282.9793
ARG_OF_PERICENTER = 359.0835
MEAN_ANOMALY   = 1.0340

EPHEMERIS_TYPE = 0
CLASSIFICATION_TYPE = U
NORAD_CAT_ID   = 20466
ELEMENT_SET_NO = 999
REV_AT_EPOCH   = 92602
BSTAR          = .39178031E-4
MEAN_MOTION_DOT = .347E-5
MEAN_MOTION_DDOT = 0

CCSDS_OMM_VERS = 2.0
CREATION_DATE  = 
ORIGINATOR     = 

OBJECT_NAME    = SL-14 R/B
OBJECT_ID      = 1990-018B
CENTER_NAME    = EARTH
REF_FRAME      = TEME
TIME_SYSTEM    = UTC
MEAN_ELEMENT_THEORY = SGP/SGP4

EPOCH          = 2026-02-20T23:04:57.230400
MEAN_MOTION    = 14.82124985
ECCENTRICITY   = .001715
INCLINATION    = 82.5179
RA_OF_ASC_NODE = 238.7275
ARG_OF_PERICENTER = 143.1709
MEAN_ANOMALY   = 217.0687

EPHEMERIS_TYPE = 0
CLASSIFICATION_TYPE = U
NORAD_CAT_ID   = 20511
ELEMENT_SET_NO = 999
REV_AT_EPOCH   = 92010
BSTAR          = .49099E-4
MEAN_MOTION_DOT = .415E-5
MEAN_MOTION_DDOT = 0

CCSDS_OMM_VERS = 2.0
CREATION_DATE  = 
ORIGINATOR     = 

OBJECT_NAME    = HST
OBJECT_ID      = 1990-037B
CENTER_NAME    = EARTH
REF_FRAME      = TEME
TIME_SYSTEM    = UTC
MEAN_ELEMENT_THEORY = SGP/SGP4

EPOCH          = 2026-02-20T12:27:47.538144
MEAN_MOTION    = 15.29189195
ECCENTRICITY   = .00011088
INCLINATION    = 28.4685
RA_OF_ASC_NODE = 157.1051
ARG_OF_PERICENTER = 279.2471
MEAN_ANOMALY   = 80.7999

EPHEMERIS_TYPE = 0
CLASSIFICATION_TYPE = U
NORAD_CAT_ID   = 20580
ELEMENT_SET_NO = 999
REV_AT_EPOCH   = 77068
BSTAR          = .22882163E-3
MEAN_MOTION_DOT = .6899E-4
MEAN_MOTION_DDOT = 0

CCSDS_OMM_VERS = 2.0
CREATION_DATE  = 
ORIGINATOR     = 

OBJECT_NAME    = SL-16 R/B
OBJECT_ID      = 1990-046B
CENTER_NAME    = EARTH
REF_FRAME      = TEME
TIME_SYSTEM    = UTC
MEAN_ELEMENT_THEORY = SGP/SGP4

EPOCH          = 2026-02-21T05:25:28.631712
MEAN_MOTION    = 14.15014255
ECCENTRICITY   = .00155641
INCLINATION    = 71.0018
RA_OF_ASC_NODE = 332.4894
ARG_OF_PERICENTER = 322.3236
MEAN_ANOMALY   = 37.6795

EPHEMERIS_TYPE = 0
CLASSIFICATION_TYPE = U
NORAD_CAT_ID   = 20625
ELEMENT_SET_NO = 999
REV_AT_EPOCH   = 84606
BSTAR          = .10782276E-3
MEAN_MOTION_DOT = .161E-5
MEAN_MOTION_DDOT = 0

CCSDS_OMM_VERS = 2.0
CREATION_DATE  = 
ORIGINATOR     = 

OBJECT_NAME    = COSMOS 2084
OBJECT_ID      = 1990-055A
CENTER_NAME    = EARTH
REF_FRAME      = TEME
TIME_SYSTEM    = UTC
MEAN_ELEMENT_THEORY = SGP/SGP4

EPOCH          = 2026-02-21T06:00:45.136224
MEAN_MOTION    = 15.05534522
ECCENTRICITY   = .00196073
INCLINATION    = 62.7909
RA_OF_ASC_NODE = 31.6395
ARG_OF_PERICENTER = 186.2959
MEAN_ANOMALY   = 173.7898

EPHEMERIS_TYPE = 0
CLASSIFICATION_TYPE = U
NORAD_CAT_ID   = 20663
ELEMENT_SET_NO = 999
REV_AT_EPOCH   = 93384
BSTAR          = .19187978E-3
MEAN_MOTION_DOT = .2583E-4
MEAN_MOTION_DDOT = 0

CCSDS_OMM_VERS = 2.0
CREATION_DATE  = 
ORIGINATOR     = 

OBJECT_NAME    = SL-6 R/B(2)
OBJECT_ID      = 1990-055D
CENTER_NAME    = EARTH
REF_FRAME      = TEME
TIME_SYSTEM    = UTC
MEAN_ELEMENT_THEORY = SGP/SGP4

EPOCH          = 2026-02-21T03:27:50.613120
MEAN_MOTION    = 15.03508538
ECCENTRICITY   = .00222743
INCLINATION    = 62.7837
RA_OF_ASC_NODE = 310.1134
ARG_OF_PERICENTER = 342.6836
MEAN_ANOMALY   = 17.3501

EPHEMERIS_TYPE = 0
CLASSIFICATION_TYPE = U
NORAD_CAT_ID   = 20666
ELEMENT_SET_NO = 999
REV_AT_EPOCH   = 93570
BSTAR          = .15155517E-3
MEAN_MOTION_DOT = .1886E-4
MEAN_MOTION_DDOT = 0

CCSDS_OMM_VERS = 2.0
CREATION_DATE  = 
ORIGINATOR     = 

OBJECT_NAME    = SL-8 R/B
OBJECT_ID      = 1990-078B
CENTER_NAME    = EARTH
REF_FRAME      = TEME
TIME_SYSTEM    = UTC
MEAN_ELEMENT_THEORY = SGP/SGP4

EPOCH          = 2026-02-21T01:00:14.719392
MEAN_MOTION    = 14.88469347
ECCENTRICITY   = .03657233
INCLINATION    = 82.8997
RA_OF_ASC_NODE = 266.2774
ARG_OF_PERICENTER = 69.8267
MEAN_ANOMALY   = 294.1890

EPHEMERIS_TYPE = 0
CLASSIFICATION_TYPE = U
NORAD_CAT_ID   = 20775
ELEMENT_SET_NO = 999
REV_AT_EPOCH   = 80682
BSTAR          = .3788939E-3
MEAN_MOTION_DOT = .12926E-3
MEAN_MOTION_DDOT = 0

CCSDS_OMM_VERS = 2.0
CREATION_DATE  = 
ORIGINATOR     = 

OBJECT_NAME    = SL-8 R/B
OBJECT_ID      = 1991-006B
CENTER_NAME    = EARTH
REF_FRAME      = TEME
TIME_SYSTEM    = UTC
MEAN_ELEMENT_THEORY = SGP/SGP4

EPOCH          = 2026-02-20T22:19:25.404960
MEAN_MOTION    = 13.77492442
ECCENTRICITY   = .0023735
INCLINATION    = 82.9453
RA_OF_ASC_NODE = 182.5047
ARG_OF_PERICENTER = 83.1874
MEAN_ANOMALY   = 38.6838

EPHEMERIS_TYPE = 0
CLASSIFICATION_TYPE = U
NORAD_CAT_ID   = 21088
ELEMENT_SET_NO = 999
REV_AT_EPOCH   = 76176
BSTAR          = .20473E-4
MEAN_MOTION_DOT = .36E-6
MEAN_MOTION_DDOT = 0

CCSDS_OMM_VERS = 2.0
CREATION_DATE  = 
ORIGINATOR     = 

OBJECT_NAME    = OKEAN-3
OBJECT_ID      = 1991-039A
CENTER_NAME    = EARTH
REF_FRAME      = TEME
TIME_SYSTEM    = UTC
MEAN_ELEMENT_THEORY = SGP/SGP4

EPOCH          = 2026-02-21T06:05:35.363328
MEAN_MOTION    = 15.04675598
ECCENTRICITY   = .00152629
INCLINATION    = 82.5211
RA_OF_ASC_NODE = 352.7621
ARG_OF_PERICENTER = 32.0381
MEAN_ANOMALY   = 328.1770

EPHEMERIS_TYPE = 0
CLASSIFICATION_TYPE = U
NORAD_CAT_ID   = 21397
ELEMENT_SET_NO = 999
REV_AT_EPOCH   = 86256
BSTAR          = .26147677E-3
MEAN_MOTION_DOT = .3713E-4
MEAN_MOTION_DDOT = 0

CCSDS_OMM_VERS = 2.0
CREATION_DATE  = 
ORIGINATOR     = 

OBJECT_NAME    = COSMOS 2151
OBJECT_ID      = 1991-042A
CENTER_NAME    = EARTH
REF_FRAME      = TEME
TIME_SYSTEM    = UTC
MEAN_ELEMENT_THEORY = SGP/SGP4

EPOCH          = 2026-02-21T04:58:15.021984
MEAN_MOTION    = 15.00037556
ECCENTRICITY   = .00140149
INCLINATION    = 82.4945
RA_OF_ASC_NODE = 99.5785
ARG_OF_PERICENTER = 112.9993
MEAN_ANOMALY   = 247.2711

EPHEMERIS_TYPE = 0
CLASSIFICATION_TYPE = U
NORAD_CAT_ID   = 21422
ELEMENT_SET_NO = 999
REV_AT_EPOCH   = 86072
BSTAR          = .13485089E-3
MEAN_MOTION_DOT = .1708E-4
MEAN_MOTION_DDOT = 0

