DELTA 2 R/B(1)          
1 20453U 90008B   26052.00012549  .00061660  00000+0  78405-3 0  9992
2 20453  35.6040 284.1803 0088870 103.0443 258.0231 15.53535456923531
COSMOS 2058             
1 20465U 90010A   26052.02872987  .00003870  00000+0  22884-3 0  9999
2 20465  82.4665  63.8414 0010645  40.0076 320.1936 15.11158688939727
SL-14 R/B               
1 20466U 90010B   26052.09496456  .00000347  00000+0  39178-4 0  9991
2 20466  82.5006 282.9793 0019792 359.0835   1.0340 14.83553623926029
SL-14 R/B               
1 20511U 90018B   26051.96177350  .00000415  00000+0  49099-4 0  9993
2 20511  82.5179 238.7275 0017150 143.1709 217.0687 14.82124985920103
HST                     
1 20580U 90037B   26051.51930021  .00006899  00000+0  22882-3 0  9995
2 20580  28.4685 157.1051 0001108 279.2471  80.7999 15.29189195770682
SL-16 R/B               
1 20625U 90046B   26052.22602583  .00000161  00000+0  10782-3 0  9995
2 20625  71.0018 332.4894 0015564 322.3236  37.6795 14.15014255846068
COSMOS 2084             
1 20663U 90055A   26052.25052241  .00002583  00000+0  19188-3 0  9999
2 20663  62.7909  31.6395 0019607 186.2959 173.7898 15.05534522933844
SL-6 R/B(2)             
1 20666U 90055D   26052.14433580  .00001886  00000+0  15156-3 0  9995
2 20666  62.7837 310.1134 0022274 342.6836  17.3501 15.03508538935706
SL-8 R/B                
1 20775U 90078B   26052.04183703  .00012926  00000+0  37889-3 0  9993
2 20775  82.8997 266.2774 0365723  69.8267 294.1890 14.88469347806825
SL-8 R/B                
1 21088U 91006B   26051.93015515  .00000036  00000+0  20473-4 0  9996
2 21088  82.9453 182.5047 0023735  83.1874  38.6838 13.77492442761766
OKEAN-3                 
1 21397U 91039A   26052.25388152  .00003713  00000+0  26148-3 0  9990
2 21397  82.5211 352.7621 0015262  32.0381 328.1770 15.04675598862567
COSMOS 2151             
1 21422U 91042A   26052.20711831  .00001708  00000+0  13485-3 0  9994
2 21422  82.4945  99.5785 0014014 112.9993 247.2711 15.00037556860721
